[{"OBJECT_NAME":"STARLINK-5489","OBJECT_ID":"2023-046AW","EPOCH":"2026-03-09T22:00:01.999584","MEAN_MOTION":15.11733158,"ECCENTRICITY":0.00011457,"INCLINATION":43.0007,"RA_OF_ASC_NODE":144.4639,"ARG_OF_PERICENTER":286.2808,"MEAN_ANOMALY":277.5007,"EPHEMERIS_TYPE":0,"CLASSIFICATION_TYPE":"U","NORAD_CAT_ID":56136,"ELEMENT_SET_NO":999,"REV_AT_EPOCH":578,"BSTAR":0.00023094589,"MEAN_MOTION_DOT":3.785e-5,"MEAN_MOTION_DDOT":0},{"OBJECT_NAME":"XRISM","OBJECT_ID":"2023-137A","EPOCH":"2026-03-09T21:42:52.202304","MEAN_MOTION":15.11505182,"ECCENTRICITY":0.00080041,"INCLINATION":31.0015,"RA_OF_ASC_NODE":282.2731,"ARG_OF_PERICENTER":40.7626,"MEAN_ANOMALY":319.361,"EPHEMERIS_TYPE":0,"CLASSIFICATION_TYPE":"U","NORAD_CAT_ID":57800,"ELEMENT_SET_NO":999,"REV_AT_EPOCH":13782,"BSTAR":0.00036815988,"MEAN_MOTION_DOT":6.492e-5,"MEAN_MOTION_DDOT":0}]
